0 DELTA 1 DEB
1 12203U 78026AU  13281.00917679  .00000475  00000-0  18612-3 0   634
2 12203 098.3700 280.7175 0066571 266.2381 152.0347 14.32543823699517
0 DELTA 1 DEB
1 12203U 78026AU  13283.03701515  .00000542  00000-0  21019-3 0   640
2 12203 098.3699 282.6762 0066596 260.1000 170.0416 14.32548005699801
0 DELTA 1 DEB
1 12203U 78026AU  13285.49231094  .00000510  00000-0  19866-3 0   655
2 12203 098.3696 285.0478 0066681 252.6854 232.5566 14.32551116700155
0 DELTA 1 DEB
1 12203U 78026AU  13287.51669029  .00000593  00000-0  22871-3 0   665
2 12203 098.3696 287.0029 0066755 246.5797 232.7516 14.32553760700445
0 DELTA 1 DEB
1 12203U 78026AU  13289.54035549  .00000692  00000-0  26411-3 0   679
2 12203 098.3697 288.9573 0066832 240.4861 229.2783 14.32558186700737
0 DELTA 1 DEB
1 12203U 78026AU  13291.97383500  .00000708  00000-0  26999-3 0   682
2 12203 098.3700 291.3074 0066942 233.1623 179.3501 14.32561426701086
0 DELTA 1 DEB
1 12203U 78026AU  13294.50073531  .00000737  00000-0  28021-3 0   695
2 12203 098.3704 293.7478 0067073 225.5704 251.2323 14.32565557701446
